NORAD_CAT_ID,OBJECT_NAME,OBJECT_TYPE,EPOCH,MEAN_MOTION,ECCENTRICITY,INCLINATION,RA_OF_ASC_NODE,ARG_OF_PERICENTER,MEAN_ANOMALY,BSTAR,MEAN_MOTION_DOT,MEAN_MOTION_DDOT,TLE_LINE0,TLE_LINE1,TLE_LINE2,SEMIMAJOR_AXIS,PERIOD,APOGEE,PERIGEE,DECAYED
55639.0,STARLINK-5508,PAYLOAD,2023-03-31 06:27:15,15.6992329,0.000282,70.0039,33.2646,251.862,108.2269,8.6294e-05,0.00010175,0.0,0 STARLINK-5508,1 55639U 23021M   23090.26892660  .00010175  00000-0  86294-4 0  9996,2 55639  70.0039  33.2646 0002820 251.8620 108.2269 15.69923290  7066,6737.253,91.724,361.018,357.219,0.0
55639.0,STARLINK-5508,PAYLOAD,2023-03-31 20:13:00,15.69961973,0.0003274,70.0033,31.653,260.6697,99.4129,0.00021472,0.00025725,0.0,0 STARLINK-5508,1 55639U 23021M   23090.84236718  .00025725  00000-0  21472-3 0  9999,2 55639  70.0033  31.6530 0003274 260.6697  99.4129 15.69961973  7156,6737.143,91.722,361.214,356.802,0.0
55639.0,STARLINK-5508,PAYLOAD,2023-04-01 03:51:46,15.69936149,0.000345,70.002,30.7541,268.843,91.237,6.2825e-05,7.352e-05,0.0,0 STARLINK-5508,1 55639U 23021M   23091.16095384  .00007352  00000-0  62825-4 0  9991,2 55639  70.0020  30.7541 0003450 268.8430  91.2370 15.69936149  7206,6737.217,91.723,361.406,356.757,0.0
55639.0,STARLINK-5508,PAYLOAD,2023-04-01 05:23:31,15.69940262,0.0003397,70.0022,30.5754,270.7748,89.3059,7.0754e-05,8.309e-05,0.0,0 STARLINK-5508,1 55639U 23021M   23091.22466886  .00008309  00000-0  70754-4 0  9990,2 55639  70.0022  30.5754 0003397 270.7748  89.3059 15.69940262  7513,6737.205,91.723,361.359,356.781,0.0
55639.0,STARLINK-5508,PAYLOAD,2023-04-02 05:51:33,15.69965561,0.0004083,70.0027,27.7097,253.3316,106.7432,0.0003674,0.0004428,0.0,0 STARLINK-5508,1 55639U 23021M   23092.24413218  .00044280  00000-0  36740-3 0  9998,2 55639  70.0027  27.7097 0004083 253.3316 106.7432 15.69965561  7379,6737.133,91.722,361.748,356.247,0.0
55639.0,STARLINK-5508,PAYLOAD,2023-04-02 21:09:04,15.69948954,0.0003279,70.0046,25.9179,247.6005,112.4844,0.00014631,0.00017434,0.0,0 STARLINK-5508,1 55639U 23021M   23092.88129689  .00017434  00000-0  14631-3 0  9990,2 55639  70.0046  25.9179 0003279 247.6005 112.4844 15.69948954  7477,6737.18,91.723,361.254,356.836,0.0
55639.0,STARLINK-5508,PAYLOAD,2023-04-03 04:47:49,15.69932575,0.0003804,70.0028,25.0207,271.1487,88.9272,4.9035e-05,5.69e-05,0.0,0 STARLINK-5508,1 55639U 23021M   23093.19988239  .00005690  00000-0  49035-4 0  9997,2 55639  70.0028  25.0207 0003804 271.1487  88.9272 15.69932575  7520,6737.227,91.724,361.655,356.529,0.0
55639.0,STARLINK-5508,PAYLOAD,2023-04-03 18:33:36,15.69924477,0.0003766,70.0021,23.4085,273.9543,86.1222,7.5789e-05,8.911e-05,0.0,0 STARLINK-5508,1 55639U 23021M   23093.77333681  .00008911  00000-0  75789-4 0  9990,2 55639  70.0021  23.4085 0003766 273.9543  86.1222 15.69924477  7616,6737.25,91.724,361.652,356.578,0.0
55639.0,STARLINK-5508,PAYLOAD,2023-04-03 21:37:06,15.69926235,0.0003779,70.0021,23.0504,274.1146,85.9618,7.1862e-05,8.438e-05,0.0,0 STARLINK-5508,1 55639U 23021M   23093.90077004  .00008438  00000-0  71862-4 0  9991,2 55639  70.0021  23.0504 0003779 274.1146  85.9618 15.69926235  7939,6737.245,91.724,361.656,356.564,0.0
55639.0,STARLINK-5508,PAYLOAD,2023-04-04 06:47:37,15.69923815,0.0003233,70.0007,21.978,274.8023,85.2804,3.1957e-05,3.631e-05,0.0,0 STARLINK-5508,1 55639U 23021M   23094.28307198  .00003631  00000-0  31957-4 0  9994,2 55639  70.0007  21.9780 0003233 274.8023  85.2804 15.69923815  7696,6737.252,91.724,361.295,356.939,0.0
55639.0,STARLINK-5508,PAYLOAD,2023-04-04 22:05:09,15.6992332,0.0002736,70.0024,20.1839,292.5172,67.5734,4.5928e-05,5.313e-05,0.0,0 STARLINK-5508,1 55639U 23021M   23094.92024348  .00005313  00000-0  45928-4 0  9990,2 55639  70.0024  20.1839 0002736 292.5172  67.5734 15.69923320  8091,6737.253,91.724,360.962,357.275,0.0
55639.0,STARLINK-5508,PAYLOAD,2023-04-05 04:12:09,15.69927979,0.0002562,70.0025,19.4675,295.2762,64.8168,5.589e-05,6.513e-05,0.0,0 STARLINK-5508,1 55639U 23021M   23095.17511018  .00006513  00000-0  55890-4 0  9995,2 55639  70.0025  19.4675 0002562 295.2762  64.8168 15.69927979  8133,6737.24,91.724,360.831,357.379,0.0
55639.0,STARLINK-5508,PAYLOAD,2023-04-05 21:01:25,15.69926665,0.0003342,70.0015,17.4986,259.4799,100.602,2.9412e-05,3.326e-05,0.0,0 STARLINK-5508,1 55639U 23021M   23095.87599199  .00003326  00000-0  29412-4 0  9998,2 55639  70.0015  17.4986 0003342 259.4799 100.6020 15.69926665  8243,6737.244,91.724,361.36,356.857,0.0
55639.0,STARLINK-5508,PAYLOAD,2023-04-05 22:33:10,15.69928915,0.0003169,70.0025,17.3213,247.1575,112.9286,1.8579e-05,2.022e-05,0.0,0 STARLINK-5508,1 55639U 23021M   23095.93970747  .00002022  00000-0  18579-4 0  9991,2 55639  70.0025  17.3213 0003169 247.1575 112.9286 15.69928915  7956,6737.237,91.724,361.237,356.967,0.0
55639.0,STARLINK-5508,PAYLOAD,2023-04-06 06:11:56,15.69936444,0.000303,70.0038,16.424,262.0068,98.0784,5.4566e-05,6.357e-05,0.0,0 STARLINK-5508,1 55639U 23021M   23096.25828980  .00006357  00000-0  54566-4 0  9999,2 55639  70.0038  16.4240 0003030 262.0068  98.0784 15.69936444  8303,6737.216,91.723,361.122,357.039,0.0
55639.0,STARLINK-5508,PAYLOAD,2023-04-07 05:08:13,15.69930356,0.0002421,70.0034,13.7383,263.764,96.328,4.7416e-05,5.494e-05,0.0,0 STARLINK-5508,1 55639U 23021M   23097.21404359  .00005494  00000-0  47416-4 0  9993,2 55639  70.0034  13.7383 0002421 263.7640  96.3280 15.69930356  8155,6737.233,91.724,360.729,357.467,0.0
55639.0,STARLINK-5508,PAYLOAD,2023-04-08 04:04:29,15.69929951,0.0003279,70.0028,11.0518,256.8958,103.1872,3.0586e-05,3.467e-05,0.0,0 STARLINK-5508,1 55639U 23021M   23098.16979164  .00003467  00000-0  30586-4 0  9997,2 55639  70.0028  11.0518 0003279 256.8958 103.1872 15.69929951  8306,6737.234,91.724,361.309,356.89,0.0
55639.0,STARLINK-5508,PAYLOAD,2023-04-08 05:36:15,15.6991908,0.0003021,70.0024,10.8706,260.5441,99.5413,3.1593e-06,1.67e-06,0.0,0 STARLINK-5508,1 55639U 23021M   23098.23351258  .00000167  00000-0  31593-5 0  9997,2 55639  70.0024  10.8706 0003021 260.5441  99.5413 15.69919080  8314,6737.266,91.724,361.166,357.095,0.0
55639.0,STARLINK-5508,PAYLOAD,2023-04-08 17:50:16,15.69927773,0.0003322,70.0019,9.4361,268.4774,91.6041,1.9535e-05,2.137e-05,0.0,0 STARLINK-5508,1 55639U 23021M   23098.74324264  .00002137  00000-0  19535-4 0  9990,2 55639  70.0019   9.4361 0003322 268.4774  91.6041 15.69927773  8395,6737.241,91.724,361.344,356.868,0.0
55639.0,STARLINK-5508,PAYLOAD,2023-04-09 03:00:47,15.6992076,0.0002977,70.0032,8.3667,241.7713,118.3183,6.2335e-06,5.37e-06,0.0,0 STARLINK-5508,1 55639U 23021M   23099.12554578  .00000537  00000-0  62335-5 0  9995,2 55639  70.0032   8.3667 0002977 241.7713 118.3183 15.69920760  8459,6737.261,91.724,361.131,357.12,0.0
55639.0,STARLINK-5508,PAYLOAD,2023-04-09 18:18:18,15.69929392,0.0003281,70.002,6.5727,255.2416,104.8416,1.3266e-05,1.383e-05,0.0,0 STARLINK-5508,1 55639U 23021M   23099.76270850  .00001383  00000-0  13266-4 0  9991,2 55639  70.0020   6.5727 0003281 255.2416 104.8416 15.69929392  8855,6737.236,91.724,361.311,356.891,0.0
55639.0,STARLINK-5508,PAYLOAD,2023-04-10 05:00:34,15.69921996,0.0003157,70.0018,5.3176,267.5643,92.5191,8.6442e-07,-1.09e-06,0.0,0 STARLINK-5508,1 55639U 23021M   23100.20873082 -.00000109  00000-0  86442-6 0  9993,2 55639  70.0018   5.3176 0003157 267.5643  92.5191 15.69921996  8627,6737.257,91.724,361.249,356.995,0.0
55639.0,STARLINK-5508,PAYLOAD,2023-04-11 02:25:05,15.69939723,0.0003406,70.0012,2.8102,273.8366,86.2441,3.6189e-05,4.144e-05,0.0,0 STARLINK-5508,1 55639U 23021M   23101.10075495  .00004144  00000-0  36189-4 0  9998,2 55639  70.0012   2.8102 0003406 273.8366  86.2441 15.69939723  8761,6737.206,91.723,361.366,356.777,0.0
55639.0,STARLINK-5508,PAYLOAD,2023-04-12 02:53:07,15.69911758,0.0003273,70.0006,359.9438,269.6712,90.4109,-2.8537e-05,-3.641e-05,0.0,0 STARLINK-5508,1 55639U 23021M   23102.12023117 -.00003641  00000-0 -28537-4 0  9996,2 55639  70.0006 359.9438 0003273 269.6712  90.4109 15.69911758  8926,6737.286,91.725,361.357,356.946,0.0
55639.0,STARLINK-5508,PAYLOAD,2023-04-13 03:21:09,15.69940451,0.0003479,69.9999,357.0792,267.4136,92.6662,8.7112e-05,0.00010282,0.0,0 STARLINK-5508,1 55639U 23021M   23103.13969530  .00010282  00000-0  87112-4 0  9997,2 55639  69.9999 357.0792 0003479 267.4136  92.6662 15.69940451  9381,6737.204,91.723,361.413,356.725,0.0
55639.0,STARLINK-5508,PAYLOAD,2023-04-13 20:10:25,15.69928798,0.0002481,70.0021,355.1063,263.5331,96.5582,1.7848e-05,1.935e-05,0.0,0 STARLINK-5508,1 55639U 23021M   23103.84057723  .00001935  00000-0  17848-4 0  9991,2 55639  70.0021 355.1063 0002481 263.5331  96.5582 15.69928798  9199,6737.238,91.724,360.774,357.431,0.0
55639.0,STARLINK-5508,PAYLOAD,2023-04-14 02:17:27,15.69913057,0.0002812,70.0003,354.3896,270.9456,89.1418,-3.2885e-05,-4.162e-05,0.0,0 STARLINK-5508,1 55639U 23021M   23104.09545198 -.00004162  00000-0 -32885-4 0  9992,2 55639  70.0003 354.3896 0002812 270.9456  89.1418 15.69913057  9538,6737.283,91.725,361.042,357.253,0.0
55639.0,STARLINK-5508,PAYLOAD,2023-04-15 02:45:28,15.69925961,0.0003148,70.0004,351.5247,278.6278,81.4561,1.8692e-05,2.036e-05,0.0,0 STARLINK-5508,1 55639U 23021M   23105.11491583  .00002036  00000-0  18692-4 0  9990,2 55639  70.0004 351.5247 0003148 278.6278  81.4561 15.69925961  9696,6737.246,91.724,361.232,356.99,0.0
55639.0,STARLINK-5508,PAYLOAD,2023-04-15 22:38:15,15.69934366,0.0003699,70.0004,349.1933,269.2466,90.8306,3.7461e-05,4.296e-05,0.0,0 STARLINK-5508,1 55639U 23021M   23105.94323130  .00004296  00000-0  37461-4 0  9998,2 55639  70.0004 349.1933 0003699 269.2466  90.8306 15.69934366  9822,6737.222,91.724,361.579,356.595,0.0
55639.0,STARLINK-5508,PAYLOAD,2023-04-16 01:41:45,15.69941229,0.0003781,70.0003,348.8351,270.1268,89.9495,6.188e-05,7.24e-05,0.0,0 STARLINK-5508,1 55639U 23021M   23106.07066299  .00007240  00000-0  61880-4 0  9997,2 55639  70.0003 348.8351 0003781 270.1268  89.9495 15.69941229  9840,6737.202,91.723,361.614,356.52,0.0
